CCSDS_OMM_VERS = 2.0
CREATION_DATE  = 
ORIGINATOR     = 

OBJECT_NAME    = SHENZHOU-22
OBJECT_ID      = 2025-272A
CENTER_NAME    = EARTH
REF_FRAME      = TEME
TIME_SYSTEM    = UTC
MEAN_ELEMENT_THEORY = SGP/SGP4

EPOCH          = 2025-12-07T23:22:56.643744
MEAN_MOTION    = 15.58863749
ECCENTRICITY   = .00092535
INCLINATION    = 41.4683
RA_OF_ASC_NODE = 45.6321
ARG_OF_PERICENTER = 352.4121
MEAN_ANOMALY   = 7.6575

EPHEMERIS_TYPE = 0
CLASSIFICATION_TYPE = U
NORAD_CAT_ID   = 66645
ELEMENT_SET_NO = 999
REV_AT_EPOCH   = 26300
BSTAR          = .29193568E-3
MEAN_MOTION_DOT = .23028E-3
MEAN_MOTION_DDOT = 0

CCSDS_OMM_VERS = 2.0
CREATION_DATE  = 
ORIGINATOR     = 

OBJECT_NAME    = CZ-2F R/B
OBJECT_ID      = 2025-272B
CENTER_NAME    = EARTH
REF_FRAME      = TEME
TIME_SYSTEM    = UTC
MEAN_ELEMENT_THEORY = SGP/SGP4

EPOCH          = 2025-12-07T13:00:15.028704
MEAN_MOTION    = 16.47453798
ECCENTRICITY   = .002214
INCLINATION    = 41.4535
RA_OF_ASC_NODE = 41.9834
ARG_OF_PERICENTER = 229.6731
MEAN_ANOMALY   = 130.2205

EPHEMERIS_TYPE = 0
CLASSIFICATION_TYPE = U
NORAD_CAT_ID   = 66646
ELEMENT_SET_NO = 999
REV_AT_EPOCH   = 200
BSTAR          = .15075E-3
MEAN_MOTION_DOT = .11903621E+0
MEAN_MOTION_DDOT = .80762E-5

CCSDS_OMM_VERS = 2.0
CREATION_DATE  = 
ORIGINATOR     = 

OBJECT_NAME    = SOYUZ-MS 28
OBJECT_ID      = 2025-275A
CENTER_NAME    = EARTH
REF_FRAME      = TEME
TIME_SYSTEM    = UTC
MEAN_ELEMENT_THEORY = SGP/SGP4

EPOCH          = 2025-12-07T21:32:16.385568
MEAN_MOTION    = 15.49404055
ECCENTRICITY   = .0003425
INCLINATION    = 51.6302
RA_OF_ASC_NODE = 166.4547
ARG_OF_PERICENTER = 217.7386
MEAN_ANOMALY   = 142.3363

EPHEMERIS_TYPE = 0
CLASSIFICATION_TYPE = U
NORAD_CAT_ID   = 66664
ELEMENT_SET_NO = 999
REV_AT_EPOCH   = 128
BSTAR          = .22339025E-3
MEAN_MOTION_DOT = .12051E-3
MEAN_MOTION_DDOT = 0

CCSDS_OMM_VERS = 2.0
CREATION_DATE  = 
ORIGINATOR     = 

OBJECT_NAME    = 1998-067XS
OBJECT_ID      = 1998-067XS
CENTER_NAME    = EARTH
REF_FRAME      = TEME
TIME_SYSTEM    = UTC
MEAN_ELEMENT_THEORY = SGP/SGP4

EPOCH          = 2025-12-07T18:23:05.277120
MEAN_MOTION    = 15.50202047
ECCENTRICITY   = .00041027
INCLINATION    = 51.6298
RA_OF_ASC_NODE = 167.0779
ARG_OF_PERICENTER = 180.8323
MEAN_ANOMALY   = 179.2660

EPHEMERIS_TYPE = 0
CLASSIFICATION_TYPE = U
NORAD_CAT_ID   = 66906
ELEMENT_SET_NO = 999
REV_AT_EPOCH   = 84
BSTAR          = .58960248E-3
MEAN_MOTION_DOT = .33584E-3
MEAN_MOTION_DDOT = 0

CCSDS_OMM_VERS = 2.0
CREATION_DATE  = 
ORIGINATOR     = 

OBJECT_NAME    = 1998-067XT
OBJECT_ID      = 1998-067XT
CENTER_NAME    = EARTH
REF_FRAME      = TEME
TIME_SYSTEM    = UTC
MEAN_ELEMENT_THEORY = SGP/SGP4

EPOCH          = 2025-12-07T21:27:41.929920
MEAN_MOTION    = 15.50640627
ECCENTRICITY   = .00050838
INCLINATION    = 51.6300
RA_OF_ASC_NODE = 166.4336
ARG_OF_PERICENTER = 199.2143
MEAN_ANOMALY   = 160.8655

EPHEMERIS_TYPE = 0
CLASSIFICATION_TYPE = U
NORAD_CAT_ID   = 66907
ELEMENT_SET_NO = 999
REV_AT_EPOCH   = 86
BSTAR          = .10871959E-2
MEAN_MOTION_DOT = .63549E-3
MEAN_MOTION_DDOT = 0

CCSDS_OMM_VERS = 2.0
CREATION_DATE  = 
ORIGINATOR     = 

OBJECT_NAME    = 1998-067XU
OBJECT_ID      = 1998-067XU
CENTER_NAME    = EARTH
REF_FRAME      = TEME
TIME_SYSTEM    = UTC
MEAN_ELEMENT_THEORY = SGP/SGP4

EPOCH          = 2025-12-07T19:54:39.986208
MEAN_MOTION    = 15.50677163
ECCENTRICITY   = .00052497
INCLINATION    = 51.6294
RA_OF_ASC_NODE = 166.7524
ARG_OF_PERICENTER = 198.4563
MEAN_ANOMALY   = 161.6236

EPHEMERIS_TYPE = 0
CLASSIFICATION_TYPE = U
NORAD_CAT_ID   = 66908
ELEMENT_SET_NO = 999
REV_AT_EPOCH   = 85
BSTAR          = .12583992E-2
MEAN_MOTION_DOT = .73824E-3
MEAN_MOTION_DDOT = 0

CCSDS_OMM_VERS = 2.0
CREATION_DATE  = 
ORIGINATOR     = 

OBJECT_NAME    = SILVERSAT
OBJECT_ID      = 1998-067XV
CENTER_NAME    = EARTH
REF_FRAME      = TEME
TIME_SYSTEM    = UTC
MEAN_ELEMENT_THEORY = SGP/SGP4

EPOCH          = 2025-12-07T19:54:33.887232
MEAN_MOTION    = 15.50747382
ECCENTRICITY   = .00050921
INCLINATION    = 51.6296
RA_OF_ASC_NODE = 166.7520
ARG_OF_PERICENTER = 199.8533
MEAN_ANOMALY   = 160.2258

EPHEMERIS_TYPE = 0
CLASSIFICATION_TYPE = U
NORAD_CAT_ID   = 66909
ELEMENT_SET_NO = 999
REV_AT_EPOCH   = 85
BSTAR          = .14852493E-2
MEAN_MOTION_DOT = .87585E-3
MEAN_MOTION_DDOT = 0

CCSDS_OMM_VERS = 2.0
CREATION_DATE  = 
ORIGINATOR     = 

OBJECT_NAME    = 1998-067XW
OBJECT_ID      = 1998-067XW
CENTER_NAME    = EARTH
REF_FRAME      = TEME
TIME_SYSTEM    = UTC
MEAN_ELEMENT_THEORY = SGP/SGP4

EPOCH          = 2025-12-07T21:26:00.150720
MEAN_MOTION    = 15.50969965
ECCENTRICITY   = .00060372
INCLINATION    = 51.6295
RA_OF_ASC_NODE = 166.4259
ARG_OF_PERICENTER = 184.7367
MEAN_ANOMALY   = 175.3566

EPHEMERIS_TYPE = 0
CLASSIFICATION_TYPE = U
NORAD_CAT_ID   = 66910
ELEMENT_SET_NO = 999
REV_AT_EPOCH   = 86
BSTAR          = .10283643E-2
MEAN_MOTION_DOT = .60787E-3
MEAN_MOTION_DDOT = 0

CCSDS_OMM_VERS = 2.0
CREATION_DATE  = 
ORIGINATOR     = 

OBJECT_NAME    = 1998-067XX
OBJECT_ID      = 1998-067XX
CENTER_NAME    = EARTH
REF_FRAME      = TEME
TIME_SYSTEM    = UTC
MEAN_ELEMENT_THEORY = SGP/SGP4

EPOCH          = 2025-12-07T22:58:32.522304
MEAN_MOTION    = 15.51093228
ECCENTRICITY   = .00059306
INCLINATION    = 51.6292
RA_OF_ASC_NODE = 166.1051
ARG_OF_PERICENTER = 185.6814
MEAN_ANOMALY   = 174.4109

EPHEMERIS_TYPE = 0
CLASSIFICATION_TYPE = U
NORAD_CAT_ID   = 66911
ELEMENT_SET_NO = 999
REV_AT_EPOCH   = 86
BSTAR          = .12532777E-2
MEAN_MOTION_DOT = .74641E-3
MEAN_MOTION_DDOT = 0

CCSDS_OMM_VERS = 2.0
CREATION_DATE  = 
ORIGINATOR     = 

OBJECT_NAME    = 1998-067XY
OBJECT_ID      = 1998-067XY
CENTER_NAME    = EARTH
REF_FRAME      = TEME
TIME_SYSTEM    = UTC
MEAN_ELEMENT_THEORY = SGP/SGP4

EPOCH          = 2025-12-07T21:28:04.340352
MEAN_MOTION    = 15.50490946
ECCENTRICITY   = .00051234
INCLINATION    = 51.6298
RA_OF_ASC_NODE = 166.4355
ARG_OF_PERICENTER = 198.3714
MEAN_ANOMALY   = 161.7090

EPHEMERIS_TYPE = 0
CLASSIFICATION_TYPE = U
NORAD_CAT_ID   = 66912
ELEMENT_SET_NO = 999
REV_AT_EPOCH   = 85
BSTAR          = .87425229E-3
MEAN_MOTION_DOT = .50656E-3
MEAN_MOTION_DDOT = 0

